OBJECT_NAME,OBJECT_ID,EPOCH,MEAN_MOTION,ECCENTRICITY,INCLINATION,RA_OF_ASC_NODE,ARG_OF_PERICENTER,MEAN_ANOMALY,EPHEMERIS_TYPE,CLASSIFICATION_TYPE,NORAD_CAT_ID,ELEMENT_SET_NO,REV_AT_EPOCH,BSTAR,MEAN_MOTION_DOT,MEAN_MOTION_DDOT
DUBAISAT-1,2009-041B,2026-06-12T22:49:53.267808,14.75117037,.00117371,98.0047,297.2557,85.7567,274.4983,0,U,35682,999,90447,.10851838E-3,.682E-5,0
OCEANSAT-2,2009-051A,2026-06-13T06:25:40.378944,13.99664810,.00149126,98.2333,151.5102,247.8964,112.0619,0,U,35931,999,87878,.202862E-5,-.35E-6,0
WORLDVIEW-2 (WV-2),2009-055A,2026-06-13T06:24:26.862912,14.37898356,.00034851,98.4736,237.7705,221.7295,138.3627,0,U,35946,999,87508,.50370019E-4,.108E-5,0
SMOS,2009-059A,2026-06-13T05:28:43.101696,14.39770624,.0001328,98.4424,351.6213,89.6791,270.4549,0,U,36036,999,87288,.89000944E-4,.235E-5,0
YAOGAN-7,2009-069A,2026-06-13T05:31:04.683648,14.78006200,.00257771,98.0077,50.1213,53.9806,306.3788,0,U,36110,999,88904,.72557238E-4,.473E-5,0
TANDEM-X,2010-030A,2026-06-12T10:46:51.489984,15.19153860,.00018942,97.4452,171.2246,88.0917,272.0534,0,U,36605,999,88592,.29613603E-4,.555E-5,0
CARTOSAT-2B,2010-035A,2026-06-13T06:42:27.905760,14.78654814,.00108481,97.9960,214.8540,196.7959,163.2894,0,U,36795,999,85927,.19203969E-4,.88E-6,0
YAOGAN-10,2010-038A,2026-06-13T07:41:41.849664,14.85340784,.00017313,97.8981,187.7559,89.3596,32.6818,0,U,36834,999,85663,.28786163E-3,.2422E-4,0
COSMO-SKYMED 4,2010-060A,2026-06-13T07:48:52.420608,14.82148957,.00013897,97.8885,347.9816,82.6881,277.4490,0,U,37216,999,84399,.31373769E-4,.198E-5,0
RESOURCESAT-2,2011-015A,2026-06-13T06:55:13.092672,14.21605612,.00101438,98.7644,231.7570,268.0499,91.9516,0,U,37387,999,78562,.49893946E-4,.65E-6,0
HAIYANG-2A,2011-043A,2026-06-13T07:49:08.078880,13.74459933,.00061998,99.3392,167.0869,97.9859,262.1994,0,U,37781,999,74612,.43176366E-3,.365E-5,0
RASAT,2011-044D,2026-06-13T07:10:11.038368,14.68161867,.00198793,98.0572,255.7547,201.3632,251.8767,0,U,37791,999,79261,.38987292E-4,.176E-5,0
SRMSAT,2011-058D,2026-06-12T12:04:18.622848,14.11574639,.00118933,19.9716,87.8194,152.1713,3.7826,0,U,37841,999,75715,.5300922E-4,.363E-5,0
PLEIADES 1A,2011-076F,2026-06-13T06:57:10.930176,14.58568371,.0001596,98.1979,239.4447,97.8791,353.9095,0,U,38012,999,77142,.45814353E-4,.167E-5,0
ZIYUAN 1-02C (ZY 1-02C),2011-079A,2026-06-13T07:46:36.294816,14.38211591,.00057409,98.4078,231.7131,330.0141,119.2304,0,U,38038,999,75865,.12114155E-3,.325E-5,0
ARIRANG-3 (KOMPSAT-3),2012-025B,2026-06-13T06:27:23.631264,14.62202984,.00065396,98.1176,121.7966,119.2983,240.8873,0,U,38338,999,75077,.85893733E-4,.386E-5,0
EXACTVIEW-1 (ADS-1B),2012-039C,2026-06-13T07:24:33.956640,14.24983464,.00109549,98.9773,281.6114,177.3383,182.7856,0,U,38709,999,72215,.56158363E-4,.85E-6,0
SPOT 6,2012-047A,2026-06-13T06:54:04.728672,14.58560503,.00014868,98.2124,231.6422,93.6825,266.4544,0,U,38755,999,73248,.45192155E-4,.164E-5,0
PLEIADES 1B,2012-068A,2026-06-13T07:21:18.641664,14.58557527,.0001653,98.1950,239.4114,94.8271,265.3117,0,U,39019,999,72028,.15770889E-4,.28E-6,0
GOKTURK 2,2012-073A,2026-06-13T06:47:53.788416,14.75538110,.00017459,97.6825,1.9108,57.9208,302.2172,0,U,39030,999,72393,.27438199E-4,.14E-5,0
LANDSAT 8,2013-008A,2026-06-13T05:56:55.385664,14.57092137,.00013772,98.2301,234.4297,93.5704,266.5652,0,U,39084,999,69732,.8233782E-4,.325E-5,0
SARAL,2013-009A,2026-06-13T06:28:52.707072,14.32855009,.00009061,98.5556,350.8869,332.3852,27.7284,0,U,39086,999,69504,.48255737E-4,.88E-6,0
GAOFEN-1,2013-018A,2026-06-13T06:25:58.749312,14.76531262,.00156979,97.9099,236.4153,280.5590,79.3851,0,U,39150,999,70766,.45518237E-4,.267E-5,0
VNREDSAT 1,2013-021B,2026-06-13T07:58:15.360672,14.64853367,.00016899,97.9087,217.8963,89.9333,270.2064,0,U,39160,999,69972,.11409519E-3,.564E-5,0
ARIRANG-5 (KOMPSAT-5),2013-042A,2026-06-13T07:24:18.687168,15.04480859,.00050738,97.6212,351.0641,130.3643,229.8026,0,U,39227,999,70327,.81668814E-4,.1082E-4,0
SKYSAT-A,2013-066C,2026-06-13T02:10:35.424192,15.12954416,.00204516,97.3819,213.6181,332.3953,27.6191,0,U,39418,999,68786,.18549396E-3,.3222E-4,0
DUBAISAT-2,2013-066D,2026-06-13T05:27:56.775744,15.10155757,.00127818,97.4561,154.4751,52.9877,307.2520,0,U,39419,999,68579,.20442545E-3,.3279E-4,0
GPM-CORE,2014-009C,2026-06-13T06:13:59.356992,15.44488796,.00120351,64.9720,321.2797,250.1227,109.8617,0,U,39574,999,69720,.25078351E-3,.11479E-3,0
SENTINEL-1A,2014-016A,2026-06-13T06:04:37.383744,14.59200004,.0001452,98.1779,171.8433,81.9712,278.1652,0,U,39634,999,64944,.25570809E-4,.75E-6,0
KAZEOSAT 1,2014-024A,2026-06-13T06:35:53.298816,14.42078183,.00014125,98.3209,236.8193,76.7080,283.4268,0,U,39731,999,63799,.23143121E-4,.33E-6,0
