DUBAISAT-1              
1 35682U 09041B   26163.95131097  .00000682  00000+0  10852-3 0  9995
2 35682  98.0047 297.2557 0011737  85.7567 274.4983 14.75117037904475
OCEANSAT-2              
1 35931U 09051A   26164.26782846 -.00000035  00000+0  20286-5 0  9999
2 35931  98.2333 151.5102 0014912 247.8964 112.0619 13.99664810878788
WORLDVIEW-2 (WV-2)      
1 35946U 09055A   26164.26697758  .00000108  00000+0  50370-4 0  9992
2 35946  98.4736 237.7705 0003485 221.7295 138.3627 14.37898356875087
SMOS                    
1 36036U 09059A   26164.22827664  .00000235  00000+0  89001-4 0  9998
2 36036  98.4424 351.6213 0001328  89.6791 270.4549 14.39770624872883
YAOGAN-7                
1 36110U 09069A   26164.22991532  .00000473  00000+0  72557-4 0  9990
2 36110  98.0077  50.1213 0025777  53.9806 306.3788 14.78006200889047
TANDEM-X                
1 36605U 10030A   26163.44920706  .00000555  00000+0  29614-4 0  9994
2 36605  97.4452 171.2246 0001894  88.0917 272.0534 15.19153860885925
CARTOSAT-2B             
1 36795U 10035A   26164.27948965  .00000088  00000+0  19204-4 0  9993
2 36795  97.9960 214.8540 0010848 196.7959 163.2894 14.78654814859275
YAOGAN-10               
1 36834U 10038A   26164.32062326  .00002422  00000+0  28786-3 0  9992
2 36834  97.8981 187.7559 0001731  89.3596  32.6818 14.85340784856632
COSMO-SKYMED 4          
1 37216U 10060A   26164.32560672  .00000198  00000+0  31374-4 0  9995
2 37216  97.8885 347.9816 0001389  82.6881 277.4490 14.82148957843993
RESOURCESAT-2           
1 37387U 11015A   26164.28834598  .00000065  00000+0  49894-4 0  9990
2 37387  98.7644 231.7570 0010143 268.0499  91.9516 14.21605612785627
HAIYANG-2A              
1 37781U 11043A   26164.32578795  .00000365  00000+0  43176-3 0  9997
2 37781  99.3392 167.0869 0006199  97.9859 262.1994 13.74459933746123
RASAT                   
1 37791U 11044D   26164.29873887  .00000176  00000+0  38987-4 0  9990
2 37791  98.0572 255.7547 0019879 201.3632 251.8767 14.68161867792615
SRMSAT                  
1 37841U 11058D   26163.50299332  .00000363  00000+0  53009-4 0  9991
2 37841  19.9716  87.8194 0011893 152.1713   3.7826 14.11574639757159
PLEIADES 1A             
1 38012U 11076F   26164.28970984  .00000167  00000+0  45814-4 0  9994
2 38012  98.1979 239.4447 0001596  97.8791 353.9095 14.58568371771427
ZIYUAN 1-02C (ZY 1-02C) 
1 38038U 11079A   26164.32403119  .00000325  00000+0  12114-3 0  9993
2 38038  98.4078 231.7131 0005740 330.0141 119.2304 14.38211591758652
ARIRANG-3 (KOMPSAT-3)   
1 38338U 12025B   26164.26902351  .00000386  00000+0  85894-4 0  9996
2 38338  98.1176 121.7966 0006539 119.2983 240.8873 14.62202984750773
EXACTVIEW-1 (ADS-1B)    
1 38709U 12039C   26164.30872635  .00000085  00000+0  56158-4 0  9996
2 38709  98.9773 281.6114 0010954 177.3383 182.7856 14.24983464722155
SPOT 6                  
1 38755U 12047A   26164.28755473  .00000164  00000+0  45192-4 0  9997
2 38755  98.2124 231.6422 0001486  93.6825 266.4544 14.58560503732480
PLEIADES 1B             
1 39019U 12068A   26164.30646576  .00000028  00000+0  15771-4 0  9999
2 39019  98.1950 239.4114 0001653  94.8271 265.3117 14.58557527720289
GOKTURK 2               
1 39030U 12073A   26164.28326144  .00000140  00000+0  27438-4 0  9999
2 39030  97.6825   1.9108 0001745  57.9208 302.2172 14.75538110723937
LANDSAT 8               
1 39084U 13008A   26164.24786326  .00000325  00000+0  82338-4 0  9990
2 39084  98.2301 234.4297 0001377  93.5704 266.5652 14.57092137697324
SARAL                   
1 39086U 13009A   26164.27005448  .00000088  00000+0  48256-4 0  9992
2 39086  98.5556 350.8869 0000906 332.3852  27.7284 14.32855009695047
GAOFEN-1                
1 39150U 13018A   26164.26804108  .00000267  00000+0  45518-4 0  9990
2 39150  97.9099 236.4153 0015697 280.5590  79.3851 14.76531262707660
VNREDSAT 1              
1 39160U 13021B   26164.33212223  .00000564  00000+0  11410-3 0  9997
2 39160  97.9087 217.8963 0001689  89.9333 270.2064 14.64853367699727
ARIRANG-5 (KOMPSAT-5)   
1 39227U 13042A   26164.30854962  .00001082  00000+0  81669-4 0  9993
2 39227  97.6212 351.0641 0005073 130.3643 229.8026 15.04480859703279
SKYSAT-A                
1 39418U 13066C   26164.09068778  .00003222  00000+0  18549-3 0  9993
2 39418  97.3819 213.6181 0020451 332.3953  27.6191 15.12954416687865
DUBAISAT-2              
1 39419U 13066D   26164.22774046  .00003279  00000+0  20443-3 0  9999
2 39419  97.4561 154.4751 0012781  52.9877 307.2520 15.10155757685795
GPM-CORE                
1 39574U 14009C   26164.25971478  .00011479  00000+0  25078-3 0  9990
2 39574  64.9720 321.2797 0012035 250.1227 109.8617 15.44488796697201
SENTINEL-1A             
1 39634U 14016A   26164.25321046  .00000075  00000+0  25571-4 0  9994
2 39634  98.1779 171.8433 0001452  81.9712 278.1652 14.59200004649448
KAZEOSAT 1              
1 39731U 14024A   26164.27492244  .00000033  00000+0  23143-4 0  9999
2 39731  98.3209 236.8193 0001412  76.7080 283.4268 14.42078183637999
